CCSDS_OMM_VERS = 2.0
CREATION_DATE  = 
ORIGINATOR     = 

OBJECT_NAME    = AQUA
OBJECT_ID      = 2002-022A
CENTER_NAME    = EARTH
REF_FRAME      = TEME
TIME_SYSTEM    = UTC
MEAN_ELEMENT_THEORY = SGP/SGP4

EPOCH          = 2026-03-27T06:46:12.121536
MEAN_MOTION    = 14.62015696
ECCENTRICITY   = .00010675
INCLINATION    = 98.4203
RA_OF_ASC_NODE = 53.9714
ARG_OF_PERICENTER = 117.7280
MEAN_ANOMALY   = 347.8109

EPHEMERIS_TYPE = 0
CLASSIFICATION_TYPE = U
NORAD_CAT_ID   = 27424
ELEMENT_SET_NO = 999
REV_AT_EPOCH   = 27130
BSTAR          = .1999886E-3
MEAN_MOTION_DOT = .954E-5
MEAN_MOTION_DDOT = 0

CCSDS_OMM_VERS = 2.0
CREATION_DATE  = 
ORIGINATOR     = 

OBJECT_NAME    = CZ-4B R/B
OBJECT_ID      = 2002-024C
CENTER_NAME    = EARTH
REF_FRAME      = TEME
TIME_SYSTEM    = UTC
MEAN_ELEMENT_THEORY = SGP/SGP4

EPOCH          = 2026-03-27T02:49:21.503136
MEAN_MOTION    = 14.14550693
ECCENTRICITY   = .00495862
INCLINATION    = 98.8802
RA_OF_ASC_NODE = 139.4337
ARG_OF_PERICENTER = 334.6419
MEAN_ANOMALY   = 77.4282

EPHEMERIS_TYPE = 0
CLASSIFICATION_TYPE = U
NORAD_CAT_ID   = 27432
ELEMENT_SET_NO = 999
REV_AT_EPOCH   = 23170
BSTAR          = .44062817E-4
MEAN_MOTION_DOT = .41E-6
MEAN_MOTION_DDOT = 0

CCSDS_OMM_VERS = 2.0
CREATION_DATE  = 
ORIGINATOR     = 

OBJECT_NAME    = MIDORI II (ADEOS-II)
OBJECT_ID      = 2002-056A
CENTER_NAME    = EARTH
REF_FRAME      = TEME
TIME_SYSTEM    = UTC
MEAN_ELEMENT_THEORY = SGP/SGP4

EPOCH          = 2026-03-27T03:57:19.028448
MEAN_MOTION    = 14.29297843
ECCENTRICITY   = .0000834
INCLINATION    = 98.7799
RA_OF_ASC_NODE = 44.7665
ARG_OF_PERICENTER = 23.0291
MEAN_ANOMALY   = 337.0927

EPHEMERIS_TYPE = 0
CLASSIFICATION_TYPE = U
NORAD_CAT_ID   = 27597
ELEMENT_SET_NO = 999
REV_AT_EPOCH   = 21279
BSTAR          = .14148151E-3
MEAN_MOTION_DOT = .315E-5
MEAN_MOTION_DDOT = 0

CCSDS_OMM_VERS = 2.0
CREATION_DATE  = 
ORIGINATOR     = 

OBJECT_NAME    = H-2A R/B
OBJECT_ID      = 2002-056E
CENTER_NAME    = EARTH
REF_FRAME      = TEME
TIME_SYSTEM    = UTC
MEAN_ELEMENT_THEORY = SGP/SGP4

EPOCH          = 2026-03-27T07:30:39.572064
MEAN_MOTION    = 14.33772025
ECCENTRICITY   = .00713308
INCLINATION    = 98.3232
RA_OF_ASC_NODE = 46.0108
ARG_OF_PERICENTER = 108.7279
MEAN_ANOMALY   = 52.4323

EPHEMERIS_TYPE = 0
CLASSIFICATION_TYPE = U
NORAD_CAT_ID   = 27601
ELEMENT_SET_NO = 999
REV_AT_EPOCH   = 21663
BSTAR          = .11659541E-3
MEAN_MOTION_DOT = .292E-5
MEAN_MOTION_DDOT = 0

CCSDS_OMM_VERS = 2.0
CREATION_DATE  = 
ORIGINATOR     = 

OBJECT_NAME    = CZ-4B R/B
OBJECT_ID      = 2003-049C
CENTER_NAME    = EARTH
REF_FRAME      = TEME
TIME_SYSTEM    = UTC
MEAN_ELEMENT_THEORY = SGP/SGP4

EPOCH          = 2026-03-27T06:18:51.182496
MEAN_MOTION    = 14.55035410
ECCENTRICITY   = .00481894
INCLINATION    = 98.6892
RA_OF_ASC_NODE = 81.8596
ARG_OF_PERICENTER = 176.7003
MEAN_ANOMALY   = 183.4520

EPHEMERIS_TYPE = 0
CLASSIFICATION_TYPE = U
NORAD_CAT_ID   = 28059
ELEMENT_SET_NO = 999
REV_AT_EPOCH   = 18915
BSTAR          = .90653348E-4
MEAN_MOTION_DOT = .345E-5
MEAN_MOTION_DDOT = 0

CCSDS_OMM_VERS = 2.0
CREATION_DATE  = 
ORIGINATOR     = 

OBJECT_NAME    = CZ-2C R/B
OBJECT_ID      = 2004-012C
CENTER_NAME    = EARTH
REF_FRAME      = TEME
TIME_SYSTEM    = UTC
MEAN_ELEMENT_THEORY = SGP/SGP4

EPOCH          = 2026-03-27T04:28:21.504000
MEAN_MOTION    = 15.66620770
ECCENTRICITY   = .00132398
INCLINATION    = 97.7188
RA_OF_ASC_NODE = 153.1612
ARG_OF_PERICENTER = 238.9845
MEAN_ANOMALY   = 121.0115

EPHEMERIS_TYPE = 0
CLASSIFICATION_TYPE = U
NORAD_CAT_ID   = 28222
ELEMENT_SET_NO = 999
REV_AT_EPOCH   = 20701
BSTAR          = .51491231E-3
MEAN_MOTION_DOT = .5423E-3
MEAN_MOTION_DDOT = 0

CCSDS_OMM_VERS = 2.0
CREATION_DATE  = 
ORIGINATOR     = 

OBJECT_NAME    = SL-16 R/B
OBJECT_ID      = 2004-021B
CENTER_NAME    = EARTH
REF_FRAME      = TEME
TIME_SYSTEM    = UTC
MEAN_ELEMENT_THEORY = SGP/SGP4

EPOCH          = 2026-03-27T06:38:19.124736
MEAN_MOTION    = 14.14594226
ECCENTRICITY   = .00048838
INCLINATION    = 71.0006
RA_OF_ASC_NODE = 195.5852
ARG_OF_PERICENTER = 348.4208
MEAN_ANOMALY   = 11.6801

EPHEMERIS_TYPE = 0
CLASSIFICATION_TYPE = U
NORAD_CAT_ID   = 28353
ELEMENT_SET_NO = 999
REV_AT_EPOCH   = 12532
BSTAR          = .94457567E-4
MEAN_MOTION_DOT = .134E-5
MEAN_MOTION_DDOT = 0

CCSDS_OMM_VERS = 2.0
CREATION_DATE  = 
ORIGINATOR     = 

OBJECT_NAME    = CZ-4B R/B
OBJECT_ID      = 2004-035C
CENTER_NAME    = EARTH
REF_FRAME      = TEME
TIME_SYSTEM    = UTC
MEAN_ELEMENT_THEORY = SGP/SGP4

EPOCH          = 2026-03-27T01:16:38.117280
MEAN_MOTION    = 15.29359100
ECCENTRICITY   = .0029966
INCLINATION    = 97.3476
RA_OF_ASC_NODE = 120.0889
ARG_OF_PERICENTER = 266.6078
MEAN_ANOMALY   = 93.1734

EPHEMERIS_TYPE = 0
CLASSIFICATION_TYPE = U
NORAD_CAT_ID   = 28415
ELEMENT_SET_NO = 999
REV_AT_EPOCH   = 18256
BSTAR          = .30304472E-3
MEAN_MOTION_DOT = .8669E-4
MEAN_MOTION_DDOT = 0

CCSDS_OMM_VERS = 2.0
CREATION_DATE  = 
ORIGINATOR     = 

OBJECT_NAME    = CZ-2C R/B
OBJECT_ID      = 2004-046B
CENTER_NAME    = EARTH
REF_FRAME      = TEME
TIME_SYSTEM    = UTC
MEAN_ELEMENT_THEORY = SGP/SGP4

EPOCH          = 2026-03-27T07:05:43.322784
MEAN_MOTION    = 14.26998146
ECCENTRICITY   = .01405902
INCLINATION    = 98.1976
RA_OF_ASC_NODE = 0.1827
ARG_OF_PERICENTER = 102.7015
MEAN_ANOMALY   = 258.9924

EPHEMERIS_TYPE = 0
CLASSIFICATION_TYPE = U
NORAD_CAT_ID   = 28480
ELEMENT_SET_NO = 999
REV_AT_EPOCH   = 11101
BSTAR          = .61233169E-4
MEAN_MOTION_DOT = .126E-5
MEAN_MOTION_DDOT = 0

CCSDS_OMM_VERS = 2.0
CREATION_DATE  = 
ORIGINATOR     = 

OBJECT_NAME    = ARIANE 5 R/B
OBJECT_ID      = 2004-049H
CENTER_NAME    = EARTH
REF_FRAME      = TEME
TIME_SYSTEM    = UTC
MEAN_ELEMENT_THEORY = SGP/SGP4

EPOCH          = 2026-03-27T01:56:27.534336
MEAN_MOTION    = 14.85296251
ECCENTRICITY   = .00829529
INCLINATION    = 98.2654
RA_OF_ASC_NODE = 255.1922
ARG_OF_PERICENTER = 295.0835
MEAN_ANOMALY   = 64.1786

EPHEMERIS_TYPE = 0
CLASSIFICATION_TYPE = U
NORAD_CAT_ID   = 28499
ELEMENT_SET_NO = 999
REV_AT_EPOCH   = 14837
BSTAR          = .95006014E-4
MEAN_MOTION_DOT = .801E-5
MEAN_MOTION_DDOT = 0

CCSDS_OMM_VERS = 2.0
CREATION_DATE  = 
ORIGINATOR     = 

OBJECT_NAME    = CZ-2D R/B
OBJECT_ID      = 2005-024B
CENTER_NAME    = EARTH
REF_FRAME      = TEME
TIME_SYSTEM    = UTC
MEAN_ELEMENT_THEORY = SGP/SGP4

EPOCH          = 2026-03-27T00:26:14.100864
MEAN_MOTION    = 15.61707844
ECCENTRICITY   = .00027515
INCLINATION    = 97.3584
RA_OF_ASC_NODE = 101.8194
ARG_OF_PERICENTER = 348.3789
MEAN_ANOMALY   = 11.7405

EPHEMERIS_TYPE = 0
CLASSIFICATION_TYPE = U
NORAD_CAT_ID   = 28738
ELEMENT_SET_NO = 999
REV_AT_EPOCH   = 14248
BSTAR          = .57530174E-3
MEAN_MOTION_DOT = .49716E-3
MEAN_MOTION_DDOT = 0

CCSDS_OMM_VERS = 2.0
CREATION_DATE  = 
ORIGINATOR     = 

OBJECT_NAME    = ALOS (DAICHI)
OBJECT_ID      = 2006-002A
CENTER_NAME    = EARTH
REF_FRAME      = TEME
TIME_SYSTEM    = UTC
MEAN_ELEMENT_THEORY = SGP/SGP4

EPOCH          = 2026-03-27T06:29:45.169152
MEAN_MOTION    = 14.69861849
ECCENTRICITY   = .0000825
INCLINATION    = 98.1246
RA_OF_ASC_NODE = 42.1417
ARG_OF_PERICENTER = 104.7799
MEAN_ANOMALY   = 255.3498

EPHEMERIS_TYPE = 0
CLASSIFICATION_TYPE = U
NORAD_CAT_ID   = 28931
ELEMENT_SET_NO = 999
REV_AT_EPOCH   = 7606
BSTAR          = .23091086E-3
MEAN_MOTION_DOT = .1331E-4
MEAN_MOTION_DDOT = 0

